NORAD_CAT_ID,OBJECT_NAME,OBJECT_TYPE,EPOCH,MEAN_MOTION,ECCENTRICITY,INCLINATION,RA_OF_ASC_NODE,ARG_OF_PERICENTER,MEAN_ANOMALY,BSTAR,MEAN_MOTION_DOT,MEAN_MOTION_DDOT,TLE_LINE0,TLE_LINE1,TLE_LINE2,SEMIMAJOR_AXIS,PERIOD,APOGEE,PERIGEE,DECAYED
53250.0,STARLINK-4059,PAYLOAD,2023-05-06 23:54:43,15.08848895,0.0001216,53.2146,172.5072,72.4369,287.6756,0.00015124,2.121e-05,0.0,0 STARLINK-4059,1 53250U 22086J   23126.99634008  .00002121  00000-0  15124-3 0  9998,2 53250  53.2146 172.5072 0001216  72.4369 287.6756 15.08848895 44222,6917.853,95.437,540.559,538.877,0.0
53250.0,STARLINK-4059,PAYLOAD,2023-05-07 09:27:02,15.08851017,0.000119,53.2145,170.7219,80.0794,280.0333,0.00024345,3.59e-05,0.0,0 STARLINK-4059,1 53250U 22086J   23127.39377792  .00003590  00000-0  24345-3 0  9993,2 53250  53.2145 170.7219 0001190  80.0794 280.0333 15.08851017 44488,6917.847,95.437,540.535,538.888,0.0
53250.0,STARLINK-4059,PAYLOAD,2023-05-08 09:17:49,15.08840054,0.000117,53.2141,166.2603,87.7628,272.3498,6.2812e-05,7.12e-06,0.0,0 STARLINK-4059,1 53250U 22086J   23128.38738288  .00000712  00000-0  62812-4 0  9999,2 53250  53.2141 166.2603 0001170  87.7628 272.3498 15.08840054 44439,6917.88,95.438,540.555,538.936,0.0
53250.0,STARLINK-4059,PAYLOAD,2023-05-09 07:33:13,15.08841602,0.0001153,53.2144,162.0968,87.8934,272.219,5.5378e-05,5.94e-06,0.0,0 STARLINK-4059,1 53250U 22086J   23129.31474153  .00000594  00000-0  55378-4 0  9998,2 53250  53.2144 162.0968 0001153  87.8934 272.2190 15.08841602 44777,6917.875,95.437,540.538,538.943,0.0
53250.0,STARLINK-4059,PAYLOAD,2023-05-10 07:24:01,15.08835186,0.0001196,53.2162,157.6402,94.1477,265.9651,9.9336e-05,1.293e-05,0.0,0 STARLINK-4059,1 53250U 22086J   23130.30834897  .00001293  00000-0  99336-4 0  9993,2 53250  53.2162 157.6402 0001196  94.1477 265.9651 15.08835186 44928,6917.895,95.438,540.587,538.933,0.0
53250.0,STARLINK-4059,PAYLOAD,2023-05-10 18:31:43,15.08838456,0.0001229,53.2163,155.5583,94.0062,266.107,0.00010587,1.397e-05,0.0,0 STARLINK-4059,1 53250U 22086J   23130.77202815  .00001397  00000-0  10587-3 0  9998,2 53250  53.2163 155.5583 0001229  94.0062 266.1070 15.08838456 44990,6917.885,95.438,540.6,538.9,0.0
53250.0,STARLINK-4059,PAYLOAD,2023-05-11 08:50:11,15.08837404,0.0001259,53.2164,152.8824,102.2109,257.9024,6.4869e-05,7.45e-06,0.0,0 STARLINK-4059,1 53250U 22086J   23131.36819072  .00000745  00000-0  64869-4 0  9992,2 53250  53.2164 152.8824 0001259 102.2109 257.9024 15.08837404 44883,6917.888,95.438,540.624,538.882,0.0
53250.0,STARLINK-4059,PAYLOAD,2023-05-11 18:22:30,15.08838593,0.0001234,53.2162,151.0978,94.3183,265.795,7.0429e-05,8.33e-06,0.0,0 STARLINK-4059,1 53250U 22086J   23131.76563070  .00000833  00000-0  70429-4 0  9997,2 53250  53.2162 151.0978 0001234  94.3183 265.7950 15.08838593 45143,6917.885,95.438,540.603,538.896,0.0
53250.0,STARLINK-4059,PAYLOAD,2023-05-11 23:08:39,15.0883763,0.000119,53.216,150.205,93.6666,266.4462,0.00010464,1.378e-05,0.0,0 STARLINK-4059,1 53250U 22086J   23131.96435058  .00001378  00000-0  10464-3 0  9990,2 53250  53.2160 150.2050 0001190  93.6666 266.4462 15.08837630 45172,6917.888,95.438,540.576,538.929,0.0
53250.0,STARLINK-4059,PAYLOAD,2023-05-12 08:40:58,15.08839849,0.000119,53.216,148.4209,93.324,266.7889,0.00010267,1.347e-05,0.0,0 STARLINK-4059,1 53250U 22086J   23132.36179037  .00001347  00000-0  10267-3 0  9994,2 53250  53.2160 148.4209 0001190  93.3240 266.7889 15.08839849 45239,6917.881,95.438,540.569,538.923,0.0
53250.0,STARLINK-4059,PAYLOAD,2023-05-13 05:20:59,15.08837747,0.0001185,53.2158,144.5544,92.056,268.0568,8.7201e-05,1.1e-05,0.0,0 STARLINK-4059,1 53250U 22086J   23133.22291362  .00001100  00000-0  87201-4 0  9996,2 53250  53.2158 144.5544 0001185  92.0560 268.0568 15.08837747 45166,6917.887,95.438,540.572,538.933,0.0
53250.0,STARLINK-4059,PAYLOAD,2023-05-13 08:31:45,15.08839359,0.0001181,53.2158,143.9584,90.4637,269.649,8.0271e-05,9.9e-06,0.0,0 STARLINK-4059,1 53250U 22086J   23133.35539280  .00000990  00000-0  80271-4 0  9990,2 53250  53.2158 143.9584 0001181  90.4637 269.6490 15.08839359 45382,6917.882,95.438,540.564,538.93,0.0
53250.0,STARLINK-4059,PAYLOAD,2023-05-13 18:04:04,15.0883983,0.0001184,53.2159,142.1744,89.7479,270.3649,7.6803e-05,9.35e-06,0.0,0 STARLINK-4059,1 53250U 22086J   23133.75283240  .00000935  00000-0  76803-4 0  9991,2 53250  53.2159 142.1744 0001184  89.7479 270.3649 15.08839830 45446,6917.881,95.438,540.565,538.927,0.0
53250.0,STARLINK-4059,PAYLOAD,2023-05-14 06:47:09,15.08843546,0.0001175,53.2157,139.7956,88.6035,271.5092,8.819e-05,1.116e-05,0.0,0 STARLINK-4059,1 53250U 22086J   23134.28274954  .00001116  00000-0  88190-4 0  9996,2 53250  53.2157 139.7956 0001175  88.6035 271.5092 15.08843546 45328,6917.87,95.437,540.547,538.922,0.0
53250.0,STARLINK-4059,PAYLOAD,2023-05-14 17:54:51,15.0884163,0.0001161,53.2158,137.714,87.8602,272.2523,7.8758e-05,9.66e-06,0.0,0 STARLINK-4059,1 53250U 22086J   23134.74643006  .00000966  00000-0  78758-4 0  9996,2 53250  53.2158 137.7140 0001161  87.8602 272.2523 15.08841630 45596,6917.875,95.437,540.544,538.937,0.0
53250.0,STARLINK-4059,PAYLOAD,2023-05-15 09:48:42,15.08841893,0.0001178,53.2158,134.7402,88.4544,271.6583,7.8365e-05,9.6e-06,0.0,0 STARLINK-4059,1 53250U 22086J   23135.40882950  .00000960  00000-0  78365-4 0  9991,2 53250  53.2158 134.7402 0001178  88.4544 271.6583 15.08841893 45493,6917.875,95.437,540.555,538.925,0.0
53250.0,STARLINK-4059,PAYLOAD,2023-05-16 06:28:44,15.08836022,0.0001196,53.2161,130.8738,92.5754,267.5375,-5.1849e-06,-3.7e-06,0.0,0 STARLINK-4059,1 53250U 22086J   23136.26995554 -.00000370  00000-0 -51849-5 0  9997,2 53250  53.2161 130.8738 0001196  92.5754 267.5375 15.08836022 45621,6917.893,95.438,540.585,538.93,0.0
53250.0,STARLINK-4059,PAYLOAD,2023-05-16 09:39:30,15.08833105,0.0001191,53.2162,130.2796,92.0027,268.1102,-2.9914e-05,-7.64e-06,0.0,0 STARLINK-4059,1 53250U 22086J   23136.40243838 -.00000764  00000-0 -29914-4 0  9998,2 53250  53.2162 130.2796 0001191  92.0027 268.1102 15.08833105 45841,6917.901,95.438,540.59,538.943,0.0
53250.0,STARLINK-4059,PAYLOAD,2023-05-16 22:22:35,15.08831968,0.0001135,53.216,127.9005,91.3722,268.7401,-1.5527e-05,-5.35e-06,0.0,0 STARLINK-4059,1 53250U 22086J   23136.93236015 -.00000535  00000-0 -15527-4 0  9996,2 53250  53.2160 127.9005 0001135  91.3722 268.7401 15.08831968 45929,6917.905,95.438,540.555,538.985,0.0
53250.0,STARLINK-4059,PAYLOAD,2023-05-17 15:51:50,15.08837916,0.0001149,53.2162,124.6297,90.641,269.4714,3.2152e-05,2.24e-06,0.0,0 STARLINK-4059,1 53250U 22086J   23137.66099655  .00000224  00000-0  32152-4 0  9990,2 53250  53.2162 124.6297 0001149  90.6410 269.4714 15.08837916 45833,6917.887,95.438,540.547,538.957,0.0
53250.0,STARLINK-4059,PAYLOAD,2023-05-18 09:21:04,15.08839951,0.000115,53.2159,121.3587,90.1654,269.947,0.0001258,1.715e-05,0.0,0 STARLINK-4059,1 53250U 22086J   23138.38963300  .00001715  00000-0  12580-3 0  9995,2 53250  53.2159 121.3587 0001150  90.1654 269.9470 15.08839951 46142,6917.881,95.438,540.541,538.95,0.0
53250.0,STARLINK-4059,PAYLOAD,2023-05-18 15:42:37,15.08836186,0.0001111,53.2157,120.1694,89.9834,270.1285,0.00010144,1.327e-05,0.0,0 STARLINK-4059,1 53250U 22086J   23138.65459676  .00001327  00000-0  10144-3 0  9994,2 53250  53.2157 120.1694 0001111  89.9834 270.1285 15.08836186 46188,6917.892,95.438,540.526,538.988,0.0
53250.0,STARLINK-4059,PAYLOAD,2023-05-19 06:01:05,15.08836454,0.0001129,53.2155,117.4923,89.6662,270.446,3.8663e-05,3.28e-06,0.0,0 STARLINK-4059,1 53250U 22086J   23139.25076006  .00000328  00000-0  38663-4 0  9990,2 53250  53.2155 117.4923 0001129  89.6662 270.4460 15.08836454 46079,6917.891,95.438,540.537,538.975,0.0
53250.0,STARLINK-4059,PAYLOAD,2023-05-20 15:24:11,15.08843872,0.0001215,53.2166,111.2477,90.6019,269.5113,4.4219e-05,4.16e-06,0.0,0 STARLINK-4059,1 53250U 22086J   23140.64179512  .00000416  00000-0  44219-4 0  9993,2 53250  53.2166 111.2477 0001215  90.6019 269.5113 15.08843872 46280,6917.869,95.437,540.574,538.893,0.0
53250.0,STARLINK-4059,PAYLOAD,2023-05-21 07:18:01,15.0884928,0.0001211,53.2163,108.273,93.5118,266.6013,0.0001278,1.747e-05,0.0,0 STARLINK-4059,1 53250U 22086J   23141.30418738  .00001747  00000-0  12780-3 0  9998,2 53250  53.2163 108.2730 0001211  93.5118 266.6013 15.08849280 46582,6917.852,95.437,540.555,538.879,0.0
53250.0,STARLINK-4059,PAYLOAD,2023-05-22 03:58:03,15.08836745,0.0001174,53.2164,104.4079,99.7401,260.3724,-4.9225e-06,-3.66e-06,0.0,0 STARLINK-4059,1 53250U 22086J   23142.16532104 -.00000366  00000-0 -49225-5 0  9991,2 53250  53.2164 104.4079 0001174  99.7401 260.3724 15.08836745 46513,6917.89,95.438,540.567,538.943,0.0
53250.0,STARLINK-4059,PAYLOAD,2023-05-23 06:59:36,15.0884602,0.000125,53.2172,99.3518,104.0483,256.0648,3.6134e-05,2.87e-06,0.0,0 STARLINK-4059,1 53250U 22086J   23143.29139452  .00000287  00000-0  36134-4 0  9999,2 53250  53.2172  99.3518 0001250 104.0483 256.0648 15.08846020 46689,6917.862,95.437,540.592,538.862,0.0
53250.0,STARLINK-4059,PAYLOAD,2023-05-23 21:18:05,15.08833985,0.0001345,53.2171,96.6742,109.4486,250.6651,7.5667e-05,9.16e-06,0.0,0 STARLINK-4059,1 53250U 22086J   23143.88756220  .00000916  00000-0  75667-4 0  9995,2 53250  53.2171  96.6742 0001345 109.4486 250.6651 15.08833985 46976,6917.899,95.438,540.694,538.833,0.0
53250.0,STARLINK-4059,PAYLOAD,2023-05-24 00:28:51,15.08835093,0.0001344,53.2171,96.0795,109.2071,250.9067,8.1782e-05,1.014e-05,0.0,0 STARLINK-4059,1 53250U 22086J   23144.02004182  .00001014  00000-0  81782-4 0  9990,2 53250  53.2171  96.0795 0001344 109.2071 250.9067 15.08835093 46791,6917.895,95.438,540.69,538.831,0.0
53250.0,STARLINK-4059,PAYLOAD,2023-05-24 06:50:24,15.08839001,0.0001183,53.2166,94.8944,94.9807,265.132,9.0482e-05,1.152e-05,0.0,0 STARLINK-4059,1 53250U 22086J   23144.28500095  .00001152  00000-0  90482-4 0  9992,2 53250  53.2166  94.8944 0001183  94.9807 265.1320 15.08839001 47036,6917.883,95.438,540.567,538.93,0.0
